NORAD_CAT_ID,OBJECT_NAME,OBJECT_TYPE,EPOCH,MEAN_MOTION,ECCENTRICITY,INCLINATION,RA_OF_ASC_NODE,ARG_OF_PERICENTER,MEAN_ANOMALY,BSTAR,MEAN_MOTION_DOT,MEAN_MOTION_DDOT,TLE_LINE0,TLE_LINE1,TLE_LINE2,SEMIMAJOR_AXIS,PERIOD,APOGEE,PERIGEE,DECAYED
49748.0,STARLINK-3248,PAYLOAD,2023-10-15 19:51:59,15.0884541,0.0001227,53.2149,121.0267,90.3114,269.8019,3.0164e-05,1.92e-06,0.0,0 STARLINK-3248,1 49748U 21115AA  23288.82777582  .00000192  00000-0  30164-4 0  9991,2 49748  53.2149 121.0267 0001227  90.3114 269.8019 15.08845410103316,6917.864,95.437,540.578,538.88,0.0
49748.0,STARLINK-3248,PAYLOAD,2023-10-16 05:24:18,15.08842459,0.0001238,53.2149,119.2421,89.0908,271.0226,5.1587e-05,5.33e-06,0.0,0 STARLINK-3248,1 49748U 21115AA  23289.22521703  .00000533  00000-0  51587-4 0  9999,2 49748  53.2149 119.2421 0001238  89.0908 271.0226 15.08842459104489,6917.873,95.437,540.594,538.881,0.0
49748.0,STARLINK-3248,PAYLOAD,2023-10-16 13:21:14,15.08836031,0.0001299,53.2146,117.7557,91.405,268.7091,5.69e-05,6.18e-06,0.0,0 STARLINK-3248,1 49748U 21115AA  23289.55642102  .00000618  00000-0  56900-4 0  9990,2 49748  53.2146 117.7557 0001299  91.4050 268.7091 15.08836031103426,6917.893,95.438,540.656,538.859,0.0
49748.0,STARLINK-3248,PAYLOAD,2023-10-16 16:32:00,15.08839341,0.0001267,53.2146,117.1608,90.5866,269.5272,3.3977e-05,2.53e-06,0.0,0 STARLINK-3248,1 49748U 21115AA  23289.68889957  .00000253  00000-0  33977-4 0  9999,2 49748  53.2146 117.1608 0001267  90.5866 269.5272 15.08839341103446,6917.882,95.438,540.624,538.871,0.0
49748.0,STARLINK-3248,PAYLOAD,2023-10-17 21:08:57,15.08840463,0.0001217,53.216,111.808,83.7825,276.3306,7.7828e-05,9.51e-06,0.0,0 STARLINK-3248,1 49748U 21115AA  23290.88122334  .00000951  00000-0  77828-4 0  9990,2 49748  53.2160 111.8080 0001217  83.7825 276.3306 15.08840463103622,6917.879,95.438,540.586,538.902,0.0
49748.0,STARLINK-3248,PAYLOAD,2023-10-18 11:27:25,15.08840787,0.0001409,53.2168,109.1331,84.6235,275.4918,0.00012335,1.676e-05,0.0,0 STARLINK-3248,1 49748U 21115AA  23291.47738358  .00001676  00000-0  12335-3 0  9991,2 49748  53.2168 109.1331 0001409  84.6235 275.4918 15.08840787104828,6917.878,95.438,540.718,538.768,0.0
49748.0,STARLINK-3248,PAYLOAD,2023-10-18 14:38:12,15.08824301,0.0001241,53.2158,108.5377,86.2942,273.8192,0.00037113,5.621e-05,0.0,0 STARLINK-3248,1 49748U 21115AA  23291.60987143  .00005621  00000-0  37113-3 0  9999,2 49748  53.2158 108.5377 0001241  86.2942 273.8192 15.08824301104849,6917.928,95.439,540.652,538.935,0.0
49748.0,STARLINK-3248,PAYLOAD,2023-10-19 04:56:40,15.08839596,0.0003813,53.2156,105.8619,84.6537,275.489,0.00029557,4.419e-05,0.0,0 STARLINK-3248,1 49748U 21115AA  23292.20602882  .00004419  00000-0  29557-3 0  9997,2 49748  53.2156 105.8619 0003813  84.6537 275.4890 15.08839596104930,6917.882,95.438,542.384,537.109,0.0
49748.0,STARLINK-3248,PAYLOAD,2023-10-19 11:18:12,15.08859405,0.0002615,53.2147,104.672,81.0541,279.0747,-0.00023935,-4.098e-05,0.0,0 STARLINK-3248,1 49748U 21115AA  23292.47097302 -.00004098  00000-0 -23935-3 0  9990,2 49748  53.2147 104.6720 0002615  81.0541 279.0747 15.08859405104971,6917.821,95.436,541.495,537.877,0.0
49748.0,STARLINK-3248,PAYLOAD,2023-10-19 14:28:58,15.08852527,0.0002043,53.2147,104.0772,82.9384,277.184,-9.5792e-06,-4.41e-06,0.0,0 STARLINK-3248,1 49748U 21115AA  23292.60345555 -.00000441  00000-0 -95792-5 0  9991,2 49748  53.2147 104.0772 0002043  82.9384 277.1840 15.08852527103882,6917.842,95.437,541.12,538.294,0.0
49748.0,STARLINK-3248,PAYLOAD,2023-10-20 11:08:59,15.08838948,0.0001209,53.2149,100.212,83.0162,277.0968,6.6158e-05,7.65e-06,0.0,0 STARLINK-3248,1 49748U 21115AA  23293.46458154  .00000765  00000-0  66158-4 0  9996,2 49748  53.2149 100.2120 0001209  83.0162 277.0968 15.08838948105128,6917.884,95.438,540.585,538.912,0.0
49748.0,STARLINK-3248,PAYLOAD,2023-10-20 14:19:46,15.0883776,0.0001172,53.2152,99.6174,82.9193,277.1933,4.7514e-05,4.68e-06,0.0,0 STARLINK-3248,1 49748U 21115AA  23293.59706224  .00000468  00000-0  47514-4 0  9999,2 49748  53.2152  99.6174 0001172  82.9193 277.1933 15.08837760104036,6917.887,95.438,540.563,538.941,0.0
49748.0,STARLINK-3248,PAYLOAD,2023-10-21 17:21:19,15.08845797,0.0001178,53.2162,94.5618,83.222,276.8906,6.3485e-05,7.23e-06,0.0,0 STARLINK-3248,1 49748U 21115AA  23294.72313705  .00000723  00000-0  63485-4 0  9992,2 49748  53.2162  94.5618 0001178  83.2220 276.8906 15.08845797105312,6917.863,95.437,540.543,538.913,0.0
49748.0,STARLINK-3248,PAYLOAD,2023-10-21 20:32:04,15.08850271,0.000152,53.2157,93.9652,91.9569,268.1598,0.00014632,2.042e-05,0.0,0 STARLINK-3248,1 49748U 21115AA  23294.85561224  .00002042  00000-0  14632-3 0  9992,2 49748  53.2157  93.9652 0001520  91.9569 268.1598 15.08850271104223,6917.849,95.437,540.766,538.662,0.0
49748.0,STARLINK-3248,PAYLOAD,2023-10-22 14:01:20,15.08834531,0.000187,53.2167,90.6914,119.7648,240.353,3.3612e-05,2.47e-06,0.0,0 STARLINK-3248,1 49748U 21115AA  23295.58426517  .00000247  00000-0  33612-4 0  9993,2 49748  53.2167  90.6914 0001870 119.7648 240.3530 15.08834531104335,6917.897,95.438,541.056,538.468,0.0
49748.0,STARLINK-3248,PAYLOAD,2023-10-22 17:12:06,15.08834329,0.0001317,53.2171,90.0994,93.7008,266.4135,2.813e-05,1.6e-06,0.0,0 STARLINK-3248,1 49748U 21115AA  23295.71674727  .00000160  00000-0  28130-4 0  9999,2 49748  53.2171  90.0994 0001317  93.7008 266.4135 15.08834329105469,6917.898,95.438,540.674,538.852,0.0
49748.0,STARLINK-3248,PAYLOAD,2023-10-23 18:38:16,15.08844517,0.0001372,53.2161,85.3426,92.7476,267.3673,0.00012421,1.69e-05,0.0,0 STARLINK-3248,1 49748U 21115AA  23296.77658341  .00001690  00000-0  12421-3 0  9994,2 49748  53.2161  85.3426 0001372  92.7476 267.3673 15.08844517105629,6917.867,95.437,540.681,538.782,0.0
49748.0,STARLINK-3248,PAYLOAD,2023-10-23 21:49:01,15.08880066,0.0001389,53.2161,84.7478,78.5999,281.5149,-0.00084135,-0.00013668,0.0,0 STARLINK-3248,1 49748U 21115AA  23296.90904098 -.00013668  00000-0 -84135-3 0  9993,2 49748  53.2161  84.7478 0001389  78.5999 281.5149 15.08880066104533,6917.758,95.435,540.584,538.662,0.0
49748.0,STARLINK-3248,PAYLOAD,2023-10-24 10:32:08,15.08834384,0.0001381,53.2161,82.3691,96.5993,263.5156,8.1229e-05,1.005e-05,0.0,0 STARLINK-3248,1 49748U 21115AA  23297.43898993  .00001005  00000-0  81229-4 0  9990,2 49748  53.2161  82.3691 0001381  96.5993 263.5156 15.08834384105722,6917.898,95.438,540.718,538.807,0.0
49748.0,STARLINK-3248,PAYLOAD,2023-10-25 13:33:41,15.08844019,0.0001438,53.2165,77.3142,91.016,269.0996,9.5296e-05,1.229e-05,0.0,0 STARLINK-3248,1 49748U 21115AA  23298.56506613  .00001229  00000-0  95296-4 0  9997,2 49748  53.2165  77.3142 0001438  91.0160 269.0996 15.08844019105897,6917.868,95.437,540.728,538.738,0.0
49748.0,STARLINK-3248,PAYLOAD,2023-10-26 13:24:29,15.08838741,0.0001385,53.2158,72.8547,88.4007,271.7143,8.6835e-05,1.094e-05,0.0,0 STARLINK-3248,1 49748U 21115AA  23299.55866974  .00001094  00000-0  86835-4 0  9995,2 49748  53.2158  72.8547 0001385  88.4007 271.7143 15.08838741106046,6917.884,95.438,540.707,538.791,0.0
49748.0,STARLINK-3248,PAYLOAD,2023-10-26 16:35:14,15.08848019,0.0001396,53.217,72.2567,83.4199,276.6952,0.00016591,2.354e-05,0.0,0 STARLINK-3248,1 49748U 21115AA  23299.69114476  .00002354  00000-0  16591-3 0  9994,2 49748  53.2170  72.2567 0001396  83.4199 276.6952 15.08848019104954,6917.856,95.437,540.687,538.755,0.0
49748.0,STARLINK-3248,PAYLOAD,2023-10-27 14:50:38,15.08855251,0.0001405,53.217,68.0948,94.1541,265.9612,0.00033495,5.049e-05,0.0,0 STARLINK-3248,1 49748U 21115AA  23300.61850015  .00005049  00000-0  33495-3 0  9991,2 49748  53.2170  68.0948 0001405  94.1541 265.9612 15.08855251105097,6917.834,95.437,540.671,538.727,0.0
49748.0,STARLINK-3248,PAYLOAD,2023-10-28 13:06:03,15.08834504,0.0002298,53.2171,63.9329,90.9736,269.152,-1.5207e-05,-5.3e-06,0.0,0 STARLINK-3248,1 49748U 21115AA  23301.54587158 -.00000530  00000-0 -15207-4 0  9993,2 49748  53.2171  63.9329 0002298  90.9736 269.1520 15.08834504106347,6917.897,95.438,541.352,538.172,0.0
49748.0,STARLINK-3248,PAYLOAD,2023-10-28 14:41:26,15.08830091,0.0001447,53.217,63.6353,97.9856,262.1301,-0.00010261,-1.92e-05,0.0,0 STARLINK-3248,1 49748U 21115AA  23301.61211170 -.00001920  00000-0 -10261-3 0  9997,2 49748  53.2170  63.6353 0001447  97.9856 262.1301 15.08830091105240,6917.911,95.438,540.777,538.775,0.0
49748.0,STARLINK-3248,PAYLOAD,2023-10-28 17:52:12,15.08837654,0.0001721,53.2173,63.0384,103.2836,256.8348,2.428e-05,9.8e-07,0.0,0 STARLINK-3248,1 49748U 21115AA  23301.74458919  .00000098  00000-0  24280-4 0  9995,2 49748  53.2173  63.0384 0001721 103.2836 256.8348 15.08837654105260,6917.888,95.438,540.943,538.562,0.0
49748.0,STARLINK-3248,PAYLOAD,2023-10-29 01:49:08,15.08843678,0.0001748,53.2182,61.5515,106.8733,253.245,0.00019564,2.827e-05,0.0,0 STARLINK-3248,1 49748U 21115AA  23302.07578843  .00002827  00000-0  19564-3 0  9991,2 49748  53.2182  61.5515 0001748 106.8733 253.2450 15.08843678106420,6917.869,95.437,540.943,538.525,0.0
49748.0,STARLINK-3248,PAYLOAD,2023-10-29 12:56:49,15.08864302,0.0001521,53.2172,59.4697,104.7255,255.3906,0.00076263,0.00011878,0.0,0 STARLINK-3248,1 49748U 21115AA  23302.53946094  .00011878  00000-0  76263-3 0  9994,2 49748  53.2172  59.4697 0001521 104.7255 255.3906 15.08864302106494,6917.806,95.436,540.723,538.619,0.0
49748.0,STARLINK-3248,PAYLOAD,2023-10-29 14:32:12,15.08867993,0.0001525,53.2167,59.1737,99.5281,260.5884,0.0012463,0.00019618,0.0,0 STARLINK-3248,1 49748U 21115AA  23302.60570298  .00019618  00000-0  12463-2 0  9992,2 49748  53.2167  59.1737 0001525  99.5281 260.5884 15.08867993105394,6917.795,95.436,540.715,538.605,0.0
49748.0,STARLINK-3248,PAYLOAD,2023-10-29 17:42:58,15.08881135,0.0001524,53.2169,58.579,96.9563,263.1603,0.0015577,0.00024618,0.0,0 STARLINK-3248,1 49748U 21115AA  23302.73817927  .00024618  00000-0  15577-2 0  9994,2 49748  53.2169  58.5790 0001524  96.9563 263.1603 15.08881135105416,6917.755,95.435,540.674,538.565,0.0
